{
  "norad_id": 41174,
  "name": "GSAT0209 (GALILEO 12)",
  "history": [
    {
      "epoch": "2026-03-28T02:09:49.627872Z",
      "apogee_km": 23238.02933378405,
      "perigee_km": 23206.274735713352,
      "latitude_deg": -1.037897524169919e-05,
      "longitude_deg": -114.4862586421792,
      "height_km": 23209.48121450068,
      "semi_major_axis_km": 29600.2890347487,
      "eccentricity": 0.00053639,
      "inclination_deg": 55.7756,
      "raan_deg": 103.4845,
      "arg_perigee_deg": 324.7749,
      "mean_anomaly_deg": 35.2418,
      "mean_motion_rev_day": 1.70474268
    },
    {
      "epoch": "2026-03-30T10:28:32.911392Z",
      "apogee_km": 23238.213834303508,
      "perigee_km": 23206.071482627973,
      "latitude_deg": -3.878550077391949e-05,
      "longitude_deg": 118.45339386616587,
      "height_km": 23209.259474557974,
      "semi_major_axis_km": 29600.279658465737,
      "eccentricity": 0.00054294,
      "inclination_deg": 55.7773,
      "raan_deg": 103.4201,
      "arg_perigee_deg": 325.1139,
      "mean_anomaly_deg": 34.903,
      "mean_motion_rev_day": 1.70474349
    },
    {
      "epoch": "2026-04-02T22:56:35.738880Z",
      "apogee_km": 23238.465603959277,
      "perigee_km": 23205.820639024485,
      "latitude_deg": -4.595897718617029e-06,
      "longitude_deg": -72.13163668834501,
      "height_km": 23208.933640154457,
      "semi_major_axis_km": 29600.28012149188,
      "eccentricity": 0.00055143,
      "inclination_deg": 55.7797,
      "raan_deg": 103.3236,
      "arg_perigee_deg": 325.8217,
      "mean_anomaly_deg": 34.1781,
      "mean_motion_rev_day": 1.70474345
    },
    {
      "epoch": "2026-04-05T21:19:57.845280Z",
      "apogee_km": 23238.669305901614,
      "perigee_km": 23205.596332427263,
      "latitude_deg": 3.974675398772869e-05,
      "longitude_deg": -50.947444902762484,
      "height_km": 23208.68560047293,
      "semi_major_axis_km": 29600.269819164438,
      "eccentricity": 0.00055866,
      "inclination_deg": 55.7817,
      "raan_deg": 103.2432,
      "arg_perigee_deg": 326.1642,
      "mean_anomaly_deg": 33.8219,
      "mean_motion_rev_day": 1.70474434
    },
    {
      "epoch": "2026-04-06T11:24:38.646720Z",
      "apogee_km": 23238.592885454542,
      "perigee_km": 23205.682707930082,
      "latitude_deg": 4.276407990340747e-05,
      "longitude_deg": 97.28839639298086,
      "height_km": 23208.778374745798,
      "semi_major_axis_km": 29600.27479669231,
      "eccentricity": 0.00055591,
      "inclination_deg": 55.7821,
      "raan_deg": 103.2271,
      "arg_perigee_deg": 326.0336,
      "mean_anomaly_deg": 33.9514,
      "mean_motion_rev_day": 1.70474391
    },
    {
      "epoch": "2026-04-08T19:43:22.196352Z",
      "apogee_km": 23238.754142592366,
      "perigee_km": 23205.5219138182,
      "latitude_deg": 2.733511334674737e-06,
      "longitude_deg": -29.768559088853333,
      "height_km": 23208.55556288193,
      "semi_major_axis_km": 29600.275028205284,
      "eccentricity": 0.00056135,
      "inclination_deg": 55.7838,
      "raan_deg": 103.1627,
      "arg_perigee_deg": 326.5876,
      "mean_anomaly_deg": 33.3988,
      "mean_motion_rev_day": 1.70474389
    },
    {
      "epoch": "2026-04-11T04:02:06.523584Z",
      "apogee_km": 23238.639988310242,
      "perigee_km": 23205.642781977615,
      "latitude_deg": 1.4077649252119783e-05,
      "longitude_deg": -156.82901115568495,
      "height_km": 23208.672323618022,
      "semi_major_axis_km": 29600.278385143927,
      "eccentricity": 0.00055738,
      "inclination_deg": 55.7853,
      "raan_deg": 103.0984,
      "arg_perigee_deg": 326.4988,
      "mean_anomaly_deg": 33.4946,
      "mean_motion_rev_day": 1.7047436
    },
    {
      "epoch": "2026-04-12T22:16:09.770304Z",
      "apogee_km": 23238.669394816647,
      "perigee_km": 23205.641388565997,
      "latitude_deg": 3.851685007323453e-05,
      "longitude_deg": -72.12634431130509,
      "height_km": 23208.653987673264,
      "semi_major_axis_km": 29600.29239169132,
      "eccentricity": 0.0005579,
      "inclination_deg": 55.7866,
      "raan_deg": 103.0501,
      "arg_perigee_deg": 326.625,
      "mean_anomaly_deg": 33.3716,
      "mean_motion_rev_day": 1.70474239
    },
    {
      "epoch": "2026-04-15T06:34:52.282272Z",
      "apogee_km": 23238.77870966661,
      "perigee_km": 23205.545269978775,
      "latitude_deg": -6.981475773838945e-07,
      "longitude_deg": 160.81518457960232,
      "height_km": 23208.515087077973,
      "semi_major_axis_km": 29600.29898982269,
      "eccentricity": 0.00056137,
      "inclination_deg": 55.7884,
      "raan_deg": 102.9858,
      "arg_perigee_deg": 326.9879,
      "mean_anomaly_deg": 33.0027,
      "mean_motion_rev_day": 1.70474182
    },
    {
      "epoch": "2026-04-15T06:34:52.290912Z",
      "apogee_km": 23238.758066714923,
      "perigee_km": 23205.564292336403,
      "latitude_deg": -4.5211481811600475e-05,
      "longitude_deg": 160.815118276328,
      "height_km": 23208.545683473734,
      "semi_major_axis_km": 29600.29817952566,
      "eccentricity": 0.0005607,
      "inclination_deg": 55.7882,
      "raan_deg": 102.9858,
      "arg_perigee_deg": 326.894,
      "mean_anomaly_deg": 33.0965,
      "mean_motion_rev_day": 1.70474189
    },
    {
      "epoch": "2026-04-22T07:30:58.086720Z",
      "apogee_km": 23238.953955661113,
      "perigee_km": 23205.400815292596,
      "latitude_deg": 4.730771286754735e-06,
      "longitude_deg": 139.65688179473423,
      "height_km": 23208.166693829502,
      "semi_major_axis_km": 29600.314385476853,
      "eccentricity": 0.00056677,
      "inclination_deg": 55.7933,
      "raan_deg": 102.7927,
      "arg_perigee_deg": 328.3957,
      "mean_anomaly_deg": 31.5595,
      "mean_motion_rev_day": 1.70474049
    },
    {
      "epoch": "2026-04-22T07:30:58.097088Z",
      "apogee_km": 23238.81353422519,
      "perigee_km": 23205.546330031506,
      "latitude_deg": -2.9959049696068352e-05,
      "longitude_deg": 139.65681498010937,
      "height_km": 23208.411717464645,
      "semi_major_axis_km": 29600.316932128346,
      "eccentricity": 0.00056194,
      "inclination_deg": 55.7938,
      "raan_deg": 102.7927,
      "arg_perigee_deg": 327.6095,
      "mean_anomaly_deg": 32.3452,
      "mean_motion_rev_day": 1.70474027
    },
    {
      "epoch": "2026-04-25T05:54:23.549760Z",
      "apogee_km": 23238.98920582163,
      "perigee_km": 23205.363249994727,
      "latitude_deg": -4.269877979936423e-05,
      "longitude_deg": 160.83101590716024,
      "height_km": 23208.042981204093,
      "semi_major_axis_km": 29600.313227908176,
      "eccentricity": 0.000568,
      "inclination_deg": 55.7962,
      "raan_deg": 102.7123,
      "arg_perigee_deg": 329.0159,
      "mean_anomaly_deg": 30.9454,
      "mean_motion_rev_day": 1.70474059
    },
    {
      "epoch": "2026-04-25T05:54:23.550624Z",
      "apogee_km": 23238.988613815367,
      "perigee_km": 23205.36384200099,
      "latitude_deg": -4.367897616600154e-05,
      "longitude_deg": 160.8310116314207,
      "height_km": 23208.04348874964,
      "semi_major_axis_km": 29600.313227908176,
      "eccentricity": 0.00056798,
      "inclination_deg": 55.7962,
      "raan_deg": 102.7123,
      "arg_perigee_deg": 329.0159,
      "mean_anomaly_deg": 30.9454,
      "mean_motion_rev_day": 1.70474059
    },
    {
      "epoch": "2026-04-28T18:22:27.687072Z",
      "apogee_km": 23238.947160818967,
      "perigee_km": 23205.390478123667,
      "latitude_deg": -2.3589758715673452e-06,
      "longitude_deg": -29.757148857786337,
      "height_km": 23208.001211665734,
      "semi_major_axis_km": 29600.305819471316,
      "eccentricity": 0.00056683,
      "inclination_deg": 55.7996,
      "raan_deg": 102.6159,
      "arg_perigee_deg": 329.421,
      "mean_anomaly_deg": 30.5313,
      "mean_motion_rev_day": 1.70474123
    },
    {
      "epoch": "2026-05-02T06:50:30.687360Z",
      "apogee_km": 23238.89862944595,
      "perigee_km": 23205.427202307077,
      "latitude_deg": -3.38572068211046e-05,
      "longitude_deg": 139.66142997725754,
      "height_km": 23207.949259043184,
      "semi_major_axis_km": 29600.299915876512,
      "eccentricity": 0.00056539,
      "inclination_deg": 55.8013,
      "raan_deg": 102.5196,
      "arg_perigee_deg": 329.9287,
      "mean_anomaly_deg": 30.0056,
      "mean_motion_rev_day": 1.70474174
    },
    {
      "epoch": "2026-05-04T01:04:33.318048Z",
      "apogee_km": 23238.92838368196,
      "perigee_km": 23205.420830942483,
      "latitude_deg": 2.116976251303572e-05,
      "longitude_deg": -135.63117052588314,
      "height_km": 23207.902767861524,
      "semi_major_axis_km": 29600.31160731222,
      "eccentricity": 0.000566,
      "inclination_deg": 55.8011,
      "raan_deg": 102.4714,
      "arg_perigee_deg": 330.2046,
      "mean_anomaly_deg": 29.7266,
      "mean_motion_rev_day": 1.70474073
    },
    {
      "epoch": "2026-05-04T15:09:14.068512Z",
      "apogee_km": 23238.949387457124,
      "perigee_km": 23205.379685484615,
      "latitude_deg": -3.722390795553645e-05,
      "longitude_deg": 12.605397557813182,
      "height_km": 23207.795430319995,
      "semi_major_axis_km": 29600.30153647087,
      "eccentricity": 0.00056705,
      "inclination_deg": 55.8015,
      "raan_deg": 102.4553,
      "arg_perigee_deg": 330.6895,
      "mean_anomaly_deg": 29.2422,
      "mean_motion_rev_day": 1.7047416
    },
    {
      "epoch": "2026-05-08T03:37:21.148608Z",
      "apogee_km": 23238.89153791719,
      "perigee_km": 23205.44911070218,
      "latitude_deg": -1.533829458916551e-05,
      "longitude_deg": -177.98502554179373,
      "height_km": 23207.7731881655,
      "semi_major_axis_km": 29600.30732430968,
      "eccentricity": 0.0005649,
      "inclination_deg": 55.8037,
      "raan_deg": 102.359,
      "arg_perigee_deg": 331.2911,
      "mean_anomaly_deg": 28.6518,
      "mean_motion_rev_day": 1.7047411
    }
  ]
}